[
  {
    "inputName": "Drostenhal - Coevorden",
    "venue": "Sporthal Drostenhal",
    "address": "Van Pallandtlaan 1",
    "postalCode": "7742 WJ",
    "city": "Coevorden",
    "placeId": "ChIJtykby738t0cRa95Tp65fULk"
  },
  {
    "inputName": "Erica - Erica",
    "venue": "Sporthal Erica",
    "address": "Veenschapswijk 25",
    "postalCode": "7887 TZ",
    "city": "Erica",
    "placeId": "ChIJDTz8K5Xvt0cRkJmodGWycMA"
  },
  {
    "inputName": "De Kampen - Schoonebeek",
    "venue": "Sporthal De Kampen",
    "address": "De Kampen 18",
    "postalCode": "7761 AJ",
    "city": "Schoonebeek",
    "placeId": "EihEZSBLYW1wZW4sIDc3NjEgU2Nob29uZWJlZWssIE5ldGhlcmxhbmRzIi4qLAoUChIJu9tC1Q7wt0cRlO7CSieD4vgSFAoSCQvwd2gZ8LdHEW8hzhbaUrcH"
  },
  {
    "inputName": "Veenoord - Veenoord",
    "city": "Veenoord",
    "venue": "Sporthal Veenoord",
    "address": "Nieuweweg 5",
    "postalCode": "7844 NA",
    "placeId": "ChIJu5154v3kt0cRtbFFaQ4Qe_k"
  },
  {
    "inputName": "Swaneburg - Coevorden",
    "venue": "Sporthal De Swaneburg",
    "address": "Pampert 2",
    "postalCode": "7742 VV",
    "city": "Coevorden",
    "placeId": "ChIJ_YlQ25T8t0cRWwxUTrsy2Qw"
  },
  {
    "inputName": "Dalen - Dalen",
    "venue": "Sportpark 't Grootveld",
    "address": "Dalerveensestraat 30b",
    "postalCode": "7751 ZT",
    "city": "Dalen",
    "placeId": "ChIJL3LmBlvjt0cRABqPD9Biin8"
  },
  {
    "inputName": "Broekveld - Sleen",
    "venue": "Sporthal Broekveld",
    "address": "Oldenhoffstraat 7",
    "postalCode": "7841 AJ",
    "city": "Sleen",
    "placeId": "ChIJPQBu0VXht0cR-Zz_w6n5C5g"
  },
  {
    "inputName": "Schoonoord - Schoonoord",
    "venue": "Sporthal Schoonoord",
    "address": "Sportparklaan 55",
    "postalCode": "7848 BA",
    "city": "Schoonoord",
    "placeId": "ChIJT3-qqmXgt0cRPwzT_fg79Yg"
  },
  {
    "inputName": "De Goorn - Oosterhesselen",
    "venue": "Sporthal De Goorn",
    "address": "Edveensweg 15",
    "postalCode": "7861 AM",
    "city": "Oosterhesselen",
    "placeId": "ChIJrdK6zjzit0cRrdWRdFWABek"
  }
]
